[{"OBJECT_NAME":"STARLINK-31314","OBJECT_ID":"2024-031C","EPOCH":"2026-03-09T20:45:53.244576","MEAN_MOTION":15.30195953,"ECCENTRICITY":5.118e-5,"INCLINATION":53.1592,"RA_OF_ASC_NODE":295.6274,"ARG_OF_PERICENTER":106.017,"MEAN_ANOMALY":254.0888,"EPHEMERIS_TYPE":0,"CLASSIFICATION_TYPE":"U","NORAD_CAT_ID":58967,"ELEMENT_SET_NO":999,"REV_AT_EPOCH":11656,"BSTAR":-8.8718506e-5,"MEAN_MOTION_DOT":-2.985e-5,"MEAN_MOTION_DDOT":0},{"OBJECT_NAME":"OBJECT D","OBJECT_ID":"2024-174D","EPOCH":"2026-03-10T00:15:10.483200","MEAN_MOTION":15.28039787,"ECCENTRICITY":0.00110644,"INCLINATION":97.4441,"RA_OF_ASC_NODE":80.4677,"ARG_OF_PERICENTER":212.9968,"MEAN_ANOMALY":147.0582,"EPHEMERIS_TYPE":0,"CLASSIFICATION_TYPE":"U","NORAD_CAT_ID":61241,"ELEMENT_SET_NO":999,"REV_AT_EPOCH":8076,"BSTAR":0.00036340099,"MEAN_MOTION_DOT":9.884e-5,"MEAN_MOTION_DDOT":0}]
